id,name,entity,iso_code,gwno,slug,region.id,region.name,Tracker,Country,tracker_slug,base_url,tracker_url,timeline_url,process_url,actors_url,impacts_url,Country_entity,sub-region_geo,region_geo,central_longitude,central_latitude,country_geo,con_name_geo,search_pax,iso2c,iso3c,iso_n,gwc
5,Afghanistan,False,AFG,700.0,afghanistan,4,Europe and Eurasia,1.0,Afghanistan,afghanistan,https://pax.peaceagreements.org/tracker/,https://pax.peaceagreements.org/tracker/afghanistan,https://pax.peaceagreements.org/tracker/timeline/afghanistan,https://pax.peaceagreements.org/tracker/process/afghanistan,https://pax.peaceagreements.org/tracker/actors/afghanistan,https://pax.peaceagreements.org/tracker/impacts/afghanistan,Afghanistan,Southern Asia,Asia,66.02471,33.83114,AFG,Afghanistan,https://pax.peaceagreements.org/agreements/search/results?region=&countries=5&name=&match_any_issues=True&text=&search_type=simple,AF,AFG,4.0,AFG
8,Algeria,False,DZA,615.0,algeria,5,Middle East and North Africa,,,,,,,,,,Algeria,Northern Africa,Africa,2.679966,28.14411,DZA,Algeria,https://pax.peaceagreements.org/agreements/search/results?region=&countries=8&name=&match_any_issues=True&text=&search_type=simple,DZ,DZA,12.0,ALG
9,Angola,False,AGO,540.0,angola,1,Africa (excl MENA),,,,,,,,,,Angola,Sub-Saharan Africa,Africa,17.54534,-12.2937,AGO,Angola,https://pax.peaceagreements.org/agreements/search/results?region=&countries=9&name=&match_any_issues=True&text=&search_type=simple,AO,AGO,24.0,ANG
11,Argentina,False,ARG,160.0,argentina,2,Americas,,,,,,,,,,Argentina,Latin America and the Caribbean,Americas,-65.0715,-35.4958,ARG,Argentina,https://pax.peaceagreements.org/agreements/search/results?region=&countries=11&name=&match_any_issues=True&text=&search_type=simple,AR,ARG,32.0,ARG
12,Armenia,False,ARM,371.0,armenia,4,Europe and Eurasia,,,,,,,,,,Armenia,Western Asia,Asia,44.94022,40.29308,ARM,Armenia,https://pax.peaceagreements.org/agreements/search/results?region=&countries=12&name=&match_any_issues=True&text=&search_type=simple,AM,ARM,51.0,ARM
16,Azerbaijan,False,AZE,373.0,azerbaijan,4,Europe and Eurasia,,,,,,,,,,Azerbaijan,Western Asia,Asia,47.52871,40.29016,AZE,Azerbaijan,https://pax.peaceagreements.org/agreements/search/results?region=&countries=16&name=&match_any_issues=True&text=&search_type=simple,AZ,AZE,31.0,AZE
161,Bahrain,False,BHR,692.0,bahrain,5,Middle East and North Africa,,,,,,,,,,Bahrain,Western Asia,Asia,50.56443,26.05186,BHR,Bahrain,https://pax.peaceagreements.org/agreements/search/results?region=&countries=161&name=&match_any_issues=True&text=&search_type=simple,BH,BHR,48.0,BAH
17,Bangladesh,False,BGD,771.0,bangladesh,3,Asia and Pacific,,,,,,,,,,Bangladesh,Southern Asia,Asia,90.28845,23.80467,BGD,Bangladesh,https://pax.peaceagreements.org/agreements/search/results?region=&countries=17&name=&match_any_issues=True&text=&search_type=simple,BD,BGD,50.0,BNG
20,Bosnia and Herzegovina,False,BIH,346.0,bosnia-and-herzegovina,4,Europe and Eurasia,1.0,Bosnia and Herzegovina,bosnia-and-herzegovina,https://pax.peaceagreements.org/tracker/,https://pax.peaceagreements.org/tracker/bosnia-and-herzegovina,https://pax.peaceagreements.org/tracker/timeline/bosnia-and-herzegovina,https://pax.peaceagreements.org/tracker/process/bosnia-and-herzegovina,https://pax.peaceagreements.org/tracker/actors/bosnia-and-herzegovina,https://pax.peaceagreements.org/tracker/impacts/bosnia-and-herzegovina,Bosnia and Herzegovina,Southern Europe,Europe,17.78525,44.16825,BIH,Bosnia,https://pax.peaceagreements.org/agreements/search/results?region=&countries=20&name=&match_any_issues=True&text=&search_type=simple,BA,BIH,70.0,BOS
22,Burundi,False,BDI,516.0,burundi,1,Africa (excl MENA),,,,,,,,,,Burundi,Sub-Saharan Africa,Africa,29.92644,-3.3223,BDI,Burundi,https://pax.peaceagreements.org/agreements/search/results?region=&countries=22&name=&match_any_issues=True&text=&search_type=simple,BI,BDI,108.0,BUI
23,Cambodia,False,KHM,811.0,cambodia,3,Asia and Pacific,,,,,,,,,,Cambodia,South-eastern Asia,Asia,104.9112,12.70904,KHM,Cambodia,https://pax.peaceagreements.org/agreements/search/results?region=&countries=23&name=&match_any_issues=True&text=&search_type=simple,KH,KHM,116.0,CAM
24,Cameroon,False,CMR,471.0,cameroon,1,Africa (excl MENA),,,,,,,,,,Cameroon,Sub-Saharan Africa,Africa,12.73861,5.673797,CMR,Cameroon,https://pax.peaceagreements.org/agreements/search/results?region=&countries=24&name=&match_any_issues=True&text=&search_type=simple,CM,CMR,120.0,CAO
26,Central African Republic,False,CAF,482.0,central-african-republic,1,Africa (excl MENA),,,,,,,,,,Central African Republic,Sub-Saharan Africa,Africa,20.48548,6.574163,CAF,Central African Republic,https://pax.peaceagreements.org/agreements/search/results?region=&countries=26&name=&match_any_issues=True&text=&search_type=simple,CF,CAF,140.0,CEN
27,Chad,False,TCD,483.0,chad,1,Africa (excl MENA),,,,,,,,,,Chad,Sub-Saharan Africa,Africa,18.67417,15.37626,TCD,Chad,https://pax.peaceagreements.org/agreements/search/results?region=&countries=27&name=&match_any_issues=True&text=&search_type=simple,TD,TCD,148.0,CHA
30,China,False,CHN,710.0,china,3,Asia and Pacific,,,,,,,,,,China,Eastern Asia,Asia,103.93,36.56735,CHN,China,https://pax.peaceagreements.org/agreements/search/results?region=&countries=30&name=&match_any_issues=True&text=&search_type=simple,CN,CHN,156.0,CHN
32,Colombia,False,COL,100.0,colombia,2,Americas,1.0,Colombia,colombia,https://pax.peaceagreements.org/tracker/,https://pax.peaceagreements.org/tracker/colombia,https://pax.peaceagreements.org/tracker/timeline/colombia,https://pax.peaceagreements.org/tracker/process/colombia,https://pax.peaceagreements.org/tracker/actors/colombia,https://pax.peaceagreements.org/tracker/impacts/colombia,Colombia,Latin America and the Caribbean,Americas,-73.0758,3.901116,COL,Colombia,https://pax.peaceagreements.org/agreements/search/results?region=&countries=32&name=&match_any_issues=True&text=&search_type=simple,CO,COL,170.0,COL
33,Comoros,False,COM,581.0,comoros,1,Africa (excl MENA),,,,,,,,,,Comoros,Sub-Saharan Africa,Africa,43.35422,-11.6626,COM,Comoros,https://pax.peaceagreements.org/agreements/search/results?region=&countries=33&name=&match_any_issues=True&text=&search_type=simple,KM,COM,174.0,COM
36,Costa Rica,False,CRI,94.0,costa-rica,2,Americas,,,,,,,,,,Costa Rica,Latin America and the Caribbean,Americas,-84.1963,9.972837,CRI,Costa Rica,https://pax.peaceagreements.org/agreements/search/results?region=&countries=36&name=&match_any_issues=True&text=&search_type=simple,CR,CRI,188.0,COS
37,Cote d'Ivoire,False,CIV,437.0,cote-divoire,1,Africa (excl MENA),,,,,,,,,,Cote d'Ivoire,Sub-Saharan Africa,Africa,-5.55473,7.629183,CIV,Cote d'Ivoire,https://pax.peaceagreements.org/agreements/search/results?region=&countries=37&name=&match_any_issues=True&text=&search_type=simple,CI,CIV,384.0,CDI
38,Croatia,False,HRV,344.0,croatia,4,Europe and Eurasia,,,,,,,,,,Croatia,Southern Europe,Europe,15.43562,45.11868,HRV,Croatia,https://pax.peaceagreements.org/agreements/search/results?region=&countries=38&name=&match_any_issues=True&text=&search_type=simple,HR,HRV,191.0,CRO
39,Cyprus,False,CYP,352.0,cyprus,4,Europe and Eurasia,,,,,,,,,,Cyprus,Western Asia,Asia,33.22623,35.05017,CYP,Cyprus,https://pax.peaceagreements.org/agreements/search/results?region=&countries=39&name=&match_any_issues=True&text=&search_type=simple,CY,CYP,196.0,CYP
42,Democratic Republic of Congo,False,COD,490.0,democratic-republic-of-congo,1,Africa (excl MENA),1.0,Democratic Republic of Congo,democratic-republic-of-congo,https://pax.peaceagreements.org/tracker/,https://pax.peaceagreements.org/tracker/democratic-republic-of-congo,https://pax.peaceagreements.org/tracker/timeline/democratic-republic-of-congo,https://pax.peaceagreements.org/tracker/process/democratic-republic-of-congo,https://pax.peaceagreements.org/tracker/actors/democratic-republic-of-congo,https://pax.peaceagreements.org/tracker/impacts/democratic-republic-of-congo,Democratic Republic of Congo,Sub-Saharan Africa,Africa,23.6157,-2.86219,COD,"Congo, Democratic Republic of the",https://pax.peaceagreements.org/agreements/search/results?region=&countries=42&name=&match_any_issues=True&text=&search_type=simple,CD,COD,180.0,DRC
43,Djibouti,False,DJI,522.0,djibouti,1,Africa (excl MENA),,,,,,,,,,Djibouti,Sub-Saharan Africa,Africa,42.58018,11.73376,DJI,Djibouti,https://pax.peaceagreements.org/agreements/search/results?region=&countries=43&name=&match_any_issues=True&text=&search_type=simple,DJ,DJI,262.0,DJI
46,Ecuador,False,ECU,130.0,ecuador,2,Americas,,,,,,,,,,Ecuador,Latin America and the Caribbean,Americas,-78.7752,-1.42884,ECU,Ecuador,https://pax.peaceagreements.org/agreements/search/results?region=&countries=46&name=&match_any_issues=True&text=&search_type=simple,EC,ECU,218.0,ECU
47,El Salvador,False,SLV,92.0,el-salvador,2,Americas,,,,,,,,,,El Salvador,Latin America and the Caribbean,Americas,-88.8657,13.73347,SLV,El Salvador,https://pax.peaceagreements.org/agreements/search/results?region=&countries=47&name=&match_any_issues=True&text=&search_type=simple,SV,SLV,222.0,SAL
200,Equatorial Guinea,False,GNQ,411.0,equatorial-guinea,1,Africa (excl MENA),,,,,,,,,,Equatorial Guinea,Sub-Saharan Africa,Africa,10.33309,1.702615,GNQ,Equatorial Guinea,https://pax.peaceagreements.org/agreements/search/results?region=&countries=200&name=&match_any_issues=True&text=&search_type=simple,GQ,GNQ,226.0,EQG
48,Eritrea,False,ERI,531.0,eritrea,1,Africa (excl MENA),,,,,,,,,,Eritrea,Sub-Saharan Africa,Africa,38.86067,15.3628,ERI,Eritrea,https://pax.peaceagreements.org/agreements/search/results?region=&countries=48&name=&match_any_issues=True&text=&search_type=simple,ER,ERI,232.0,ERI
49,Ethiopia,False,ETH,530.0,ethiopia,1,Africa (excl MENA),1.0,Ethiopia,ethiopia,https://pax.peaceagreements.org/tracker/,https://pax.peaceagreements.org/tracker/ethiopia,https://pax.peaceagreements.org/tracker/timeline/ethiopia,https://pax.peaceagreements.org/tracker/process/ethiopia,https://pax.peaceagreements.org/tracker/actors/ethiopia,https://pax.peaceagreements.org/tracker/impacts/ethiopia,Ethiopia,Sub-Saharan Africa,Africa,39.64475,8.619089,ETH,Ethiopia,https://pax.peaceagreements.org/agreements/search/results?region=&countries=49&name=&match_any_issues=True&text=&search_type=simple,ET,ETH,231.0,ETH
51,Fiji,False,FJI,950.0,fiji,3,Asia and Pacific,,,,,,,,,,Fiji,Melanesia,Oceania,177.9633,-17.8354,FJI,Fiji,https://pax.peaceagreements.org/agreements/search/results?region=&countries=51&name=&match_any_issues=True&text=&search_type=simple,FJ,FJI,242.0,FJI
52,France,False,FRA,220.0,france,4,Europe and Eurasia,,,,,,,,,,France,Western Europe,Europe,2.55054,46.55942,FRA,France,https://pax.peaceagreements.org/agreements/search/results?region=&countries=52&name=&match_any_issues=True&text=&search_type=simple,FR,FRA,250.0,FRN
54,Gabon,False,GAB,481.0,gabon,1,Africa (excl MENA),,,,,,,,,,Gabon,Sub-Saharan Africa,Africa,11.78176,-0.6239,GAB,Gabon,https://pax.peaceagreements.org/agreements/search/results?region=&countries=54&name=&match_any_issues=True&text=&search_type=simple,GA,GAB,266.0,GAB
170,Gambia,False,GMB,420.0,gambia,1,Africa (excl MENA),,,,,,,,,,Gambia,Sub-Saharan Africa,Africa,-15.3809,13.44801,GMB,Gambia,https://pax.peaceagreements.org/agreements/search/results?region=&countries=170&name=&match_any_issues=True&text=&search_type=simple,GM,GMB,270.0,GAM
55,Georgia,False,GEO,372.0,georgia,4,Europe and Eurasia,,,,,,,,,,Georgia,Western Asia,Asia,45.0,42.5,,,https://pax.peaceagreements.org/agreements/search/results?region=&countries=55&name=&match_any_issues=True&text=&search_type=simple,GE,GEO,268.0,GRG
194,Germany,False,DEU,260.0,germany,4,Europe and Eurasia,,,,,,,,,,Germany,Western Europe,Europe,10.39228,51.11063,DEU,Federal Republic of Germany,https://pax.peaceagreements.org/agreements/search/results?region=&countries=194&name=&match_any_issues=True&text=&search_type=simple,DE,DEU,276.0,GMY
172,Ghana,False,GHA,452.0,ghana,1,Africa (excl MENA),,,,,,,,,,Ghana,Sub-Saharan Africa,Africa,-1.24977,7.980995,GHA,Ghana,https://pax.peaceagreements.org/agreements/search/results?region=&countries=172&name=&match_any_issues=True&text=&search_type=simple,GH,GHA,288.0,GHA
165,Greece,False,GRC,350.0,greece,4,Europe and Eurasia,,,,,,,,,,Greece,Southern Europe,Europe,22.0,39.0,GRC,Greece,https://pax.peaceagreements.org/agreements/search/results?region=&countries=165&name=&match_any_issues=True&text=&search_type=simple,GR,GRC,300.0,GRC
56,Guatemala,False,GTM,90.0,guatemala,2,Americas,,,,,,,,,,Guatemala,Latin America and the Caribbean,Americas,-90.364,15.69724,GTM,Guatemala,https://pax.peaceagreements.org/agreements/search/results?region=&countries=56&name=&match_any_issues=True&text=&search_type=simple,GT,GTM,320.0,GUA
57,Guinea,False,GIN,438.0,guinea,1,Africa (excl MENA),,,,,,,,,,Guinea,Sub-Saharan Africa,Africa,-10.9425,10.43545,GIN,Guinea,https://pax.peaceagreements.org/agreements/search/results?region=&countries=57&name=&match_any_issues=True&text=&search_type=simple,GN,GIN,324.0,GUI
58,Guinea-Bissau,False,GNB,404.0,guinea-bissau,1,Africa (excl MENA),,,,,,,,,,Guinea-Bissau,Sub-Saharan Africa,Africa,-14.985,12.01013,GNB,Guinea-Bissau,https://pax.peaceagreements.org/agreements/search/results?region=&countries=58&name=&match_any_issues=True&text=&search_type=simple,GW,GNB,624.0,GNB
59,Haiti,False,HTI,41.0,haiti,2,Americas,,,,,,,,,,Haiti,Latin America and the Caribbean,Americas,-72.3386,18.40248,HTI,Haiti,https://pax.peaceagreements.org/agreements/search/results?region=&countries=59&name=&match_any_issues=True&text=&search_type=simple,HT,HTI,332.0,HAI
61,Honduras,False,HND,91.0,honduras,2,Americas,,,,,,,,,,Honduras,Latin America and the Caribbean,Americas,-86.6003,14.82417,HND,Honduras,https://pax.peaceagreements.org/agreements/search/results?region=&countries=61&name=&match_any_issues=True&text=&search_type=simple,HN,HND,340.0,HON
62,India,False,IND,750.0,india,3,Asia and Pacific,,,,,,,,,,India,Southern Asia,Asia,79.44333,23.37938,IND,India,https://pax.peaceagreements.org/agreements/search/results?region=&countries=62&name=&match_any_issues=True&text=&search_type=simple,IN,IND,356.0,IND
63,Indonesia,False,IDN,850.0,indonesia,3,Asia and Pacific,,,,,,,,,,Indonesia,South-eastern Asia,Asia,113.9159,-0.98982,IDN,Indonesia,https://pax.peaceagreements.org/agreements/search/results?region=&countries=63&name=&match_any_issues=True&text=&search_type=simple,ID,IDN,360.0,INS
66,Iran,False,IRN,630.0,iran,5,Middle East and North Africa,,,,,,,,,,Iran,Southern Asia,Asia,54.30591,32.55802,IRN,Iran,https://pax.peaceagreements.org/agreements/search/results?region=&countries=66&name=&match_any_issues=True&text=&search_type=simple,IR,IRN,364.0,IRN
64,Iraq,False,IRQ,645.0,iraq,5,Middle East and North Africa,1.0,Iraq,iraq,https://pax.peaceagreements.org/tracker/,https://pax.peaceagreements.org/tracker/iraq,https://pax.peaceagreements.org/tracker/timeline/iraq,https://pax.peaceagreements.org/tracker/process/iraq,https://pax.peaceagreements.org/tracker/actors/iraq,https://pax.peaceagreements.org/tracker/impacts/iraq,Iraq,Western Asia,Asia,43.77717,33.03897,IRQ,Iraq,https://pax.peaceagreements.org/agreements/search/results?region=&countries=64&name=&match_any_issues=True&text=&search_type=simple,IQ,IRQ,368.0,IRQ
65,Ireland,False,IRL,205.0,ireland,4,Europe and Eurasia,,,,,,,,,,Ireland,Northern Europe,Europe,-8.14601,53.17588,IRL,Ireland,https://pax.peaceagreements.org/agreements/search/results?region=&countries=65&name=&match_any_issues=True&text=&search_type=simple,IE,IRL,372.0,IRE
67,Israel,False,ISR,666.0,israel,5,Middle East and North Africa,,,,,,,,,,Israel,Western Asia,Asia,34.97922,31.97771,ISR,Israel,https://pax.peaceagreements.org/agreements/search/results?region=&countries=67&name=&match_any_issues=True&text=&search_type=simple,IL,ISR,376.0,ISR
199,Japan,False,JPN,740.0,japan,3,Asia and Pacific,,,,,,,,,,Japan,Eastern Asia,Asia,139.2715,36.65523,JPN,Japan,https://pax.peaceagreements.org/agreements/search/results?region=&countries=199&name=&match_any_issues=True&text=&search_type=simple,JP,JPN,392.0,JPN
68,Jordan,False,JOR,663.0,jordan,5,Middle East and North Africa,,,,,,,,,,Jordan,Western Asia,Asia,36.7881,31.24819,JOR,Hashemite Kingdom of Jordan,https://pax.peaceagreements.org/agreements/search/results?region=&countries=68&name=&match_any_issues=True&text=&search_type=simple,JO,JOR,400.0,JOR
69,Kazakhstan,False,KAZ,705.0,kazakhstan,4,Europe and Eurasia,,,,,,,,,,Kazakhstan,Central Asia,Asia,67.19505,48.18311,KAZ,Kazakhstan,https://pax.peaceagreements.org/agreements/search/results?region=&countries=69&name=&match_any_issues=True&text=&search_type=simple,KZ,KAZ,398.0,KZK
70,Kenya,False,KEN,501.0,kenya,1,Africa (excl MENA),,,,,,,,,,Kenya,Sub-Saharan Africa,Africa,37.8897,0.528431,KEN,Kenya,https://pax.peaceagreements.org/agreements/search/results?region=&countries=70&name=&match_any_issues=True&text=&search_type=simple,KE,KEN,404.0,KEN
71,Kosovo,False,XKX,347.0,kosovo,4,Europe and Eurasia,,,,,,,,,,Kosovo,Southern Europe,Europe,20.89157,42.58151,,,https://pax.peaceagreements.org/agreements/search/results?region=&countries=71&name=&match_any_issues=True&text=&search_type=simple,XK,XKX,,
72,Kuwait,False,KWT,690.0,kuwait,5,Middle East and North Africa,,,,,,,,,,Kuwait,Western Asia,Asia,47.61217,29.35534,KWT,Kuwait,https://pax.peaceagreements.org/agreements/search/results?region=&countries=72&name=&match_any_issues=True&text=&search_type=simple,KW,KWT,414.0,KUW
73,Kyrgyzstan,False,KGZ,703.0,kyrgyzstan,4,Europe and Eurasia,,,,,,,,,,Kyrgyzstan,Central Asia,Asia,74.46759,41.43198,KGZ,Kyrgyz Republic,https://pax.peaceagreements.org/agreements/search/results?region=&countries=73&name=&match_any_issues=True&text=&search_type=simple,KG,KGZ,417.0,KYR
74,Lebanon,False,LBN,660.0,lebanon,5,Middle East and North Africa,,,,,,,,,,Lebanon,Western Asia,Asia,35.89343,33.92145,LBN,Lebanon,https://pax.peaceagreements.org/agreements/search/results?region=&countries=74&name=&match_any_issues=True&text=&search_type=simple,LB,LBN,422.0,LEB
75,Lesotho,False,LSO,570.0,lesotho,1,Africa (excl MENA),,,,,,,,,,Lesotho,Sub-Saharan Africa,Africa,28.24669,-29.5823,LSO,Lesotho,https://pax.peaceagreements.org/agreements/search/results?region=&countries=75&name=&match_any_issues=True&text=&search_type=simple,LS,LSO,426.0,LES
76,Liberia,False,LBR,450.0,liberia,1,Africa (excl MENA),,,,,,,,,,Liberia,Sub-Saharan Africa,Africa,-9.31039,6.447343,LBR,Liberia,https://pax.peaceagreements.org/agreements/search/results?region=&countries=76&name=&match_any_issues=True&text=&search_type=simple,LR,LBR,430.0,LBR
77,Libya,False,LBY,620.0,libya,5,Middle East and North Africa,1.0,Libya,libya,https://pax.peaceagreements.org/tracker/,https://pax.peaceagreements.org/tracker/libya,https://pax.peaceagreements.org/tracker/timeline/libya,https://pax.peaceagreements.org/tracker/process/libya,https://pax.peaceagreements.org/tracker/actors/libya,https://pax.peaceagreements.org/tracker/impacts/libya,Libya,Northern Africa,Africa,18.03082,27.04182,LBY,Libya,https://pax.peaceagreements.org/agreements/search/results?region=&countries=77&name=&match_any_issues=True&text=&search_type=simple,LY,LBY,434.0,LIB
78,Macedonia,False,MKD,343.0,macedonia,4,Europe and Eurasia,,,,,,,,,,Macedonia,Southern Europe,Europe,21.71545,41.61052,MKD,North Macedonia,https://pax.peaceagreements.org/agreements/search/results?region=&countries=78&name=&match_any_issues=True&text=&search_type=simple,MK,MKD,807.0,MAC
79,Madagascar,False,MDG,580.0,madagascar,1,Africa (excl MENA),,,,,,,,,,Madagascar,Sub-Saharan Africa,Africa,46.69788,-19.3769,MDG,Madagascar,https://pax.peaceagreements.org/agreements/search/results?region=&countries=79&name=&match_any_issues=True&text=&search_type=simple,MG,MDG,450.0,MAG
81,Maldives,False,MDV,781.0,maldives,3,Asia and Pacific,,,,,,,,,,Maldives,Southern Asia,Asia,73.50928,4.17524,MDV,Maldives,https://pax.peaceagreements.org/agreements/search/results?region=&countries=81&name=&match_any_issues=True&text=&search_type=simple,MV,MDV,462.0,MAD
82,Mali,False,MLI,432.0,mali,1,Africa (excl MENA),,,,,,,,,,Mali,Sub-Saharan Africa,Africa,-3.52047,17.36297,MLI,Mali,https://pax.peaceagreements.org/agreements/search/results?region=&countries=82&name=&match_any_issues=True&text=&search_type=simple,ML,MLI,466.0,MLI
83,Mauritania,False,MRT,435.0,mauritania,1,Africa (excl MENA),,,,,,,,,,Mauritania,Sub-Saharan Africa,Africa,-10.3315,20.25951,MRT,Mauritania,https://pax.peaceagreements.org/agreements/search/results?region=&countries=83&name=&match_any_issues=True&text=&search_type=simple,MR,MRT,478.0,MAA
84,Mexico,False,MEX,70.0,mexico,2,Americas,,,,,,,,,,Mexico,Latin America and the Caribbean,Americas,-102.548,23.95282,MEX,Mexico,https://pax.peaceagreements.org/agreements/search/results?region=&countries=84&name=&match_any_issues=True&text=&search_type=simple,MX,MEX,484.0,MEX
87,Moldova,False,MDA,359.0,moldova,4,Europe and Eurasia,,,,,,,,,,Moldova,Eastern Europe,Europe,28.46371,47.20103,MDA,Moldova,https://pax.peaceagreements.org/agreements/search/results?region=&countries=87&name=&match_any_issues=True&text=&search_type=simple,MD,MDA,498.0,MLD
180,Mongolia,False,MNG,712.0,mongolia,4,Europe and Eurasia,,,,,,,,,,Mongolia,Eastern Asia,Asia,103.0676,46.83469,MNG,Mongolia,https://pax.peaceagreements.org/agreements/search/results?region=&countries=180&name=&match_any_issues=True&text=&search_type=simple,MN,MNG,496.0,MON
89,Montenegro,False,MNE,341.0,montenegro,4,Europe and Eurasia,,,,,,,,,,Montenegro,Southern Europe,Europe,19.2521,42.79615,MNE,Montenegro,https://pax.peaceagreements.org/agreements/search/results?region=&countries=89&name=&match_any_issues=True&text=&search_type=simple,ME,MNE,499.0,MNG
90,Morocco,False,MAR,600.0,morocco,5,Middle East and North Africa,,,,,,,,,,Morocco,Northern Africa,Africa,-5.0,32.0,MAR,Kingdom of Morocco,https://pax.peaceagreements.org/agreements/search/results?region=&countries=90&name=&match_any_issues=True&text=&search_type=simple,MA,MAR,504.0,MOR
91,Mozambique,False,MOZ,541.0,mozambique,1,Africa (excl MENA),,,,,,,,,,Mozambique,Sub-Saharan Africa,Africa,35.0,-18.25,MOZ,Mozambique,https://pax.peaceagreements.org/agreements/search/results?region=&countries=91&name=&match_any_issues=True&text=&search_type=simple,MZ,MOZ,508.0,MZM
92,Myanmar,False,MMR,775.0,myanmar,3,Asia and Pacific,1.0,Myanmar,myanmar,https://pax.peaceagreements.org/tracker/,https://pax.peaceagreements.org/tracker/myanmar,https://pax.peaceagreements.org/tracker/timeline/myanmar,https://pax.peaceagreements.org/tracker/process/myanmar,https://pax.peaceagreements.org/tracker/actors/myanmar,https://pax.peaceagreements.org/tracker/impacts/myanmar,Myanmar,South-eastern Asia,Asia,96.50374,21.10066,MMR,Burma,https://pax.peaceagreements.org/agreements/search/results?region=&countries=92&name=&match_any_issues=True&text=&search_type=simple,MM,MMR,104.0,MYA
96,Namibia,False,NAM,565.0,namibia,1,Africa (excl MENA),,,,,,,,,,Namibia,Sub-Saharan Africa,Africa,17.2215,-22.139,NAM,Namibia,https://pax.peaceagreements.org/agreements/search/results?region=&countries=96&name=&match_any_issues=True&text=&search_type=simple,,NAM,516.0,NAM
97,Nepal,False,NPL,790.0,nepal,3,Asia and Pacific,,,,,,,,,,Nepal,Southern Asia,Asia,83.94416,28.25914,NPL,Nepal,https://pax.peaceagreements.org/agreements/search/results?region=&countries=97&name=&match_any_issues=True&text=&search_type=simple,NP,NPL,524.0,NEP
99,New Zealand,False,NZL,920.0,new-zealand,3,Asia and Pacific,,,,,,,,,,New Zealand,Australia and New Zealand,Oceania,172.3434,-42.2872,NZL,New Zealand,https://pax.peaceagreements.org/agreements/search/results?region=&countries=99&name=&match_any_issues=True&text=&search_type=simple,NZ,NZL,554.0,NEW
100,Nicaragua,False,NIC,93.0,nicaragua,2,Americas,,,,,,,,,,Nicaragua,Latin America and the Caribbean,Americas,-85.0062,12.93446,NIC,Nicaragua,https://pax.peaceagreements.org/agreements/search/results?region=&countries=100&name=&match_any_issues=True&text=&search_type=simple,NI,NIC,558.0,NIC
101,Niger,False,NER,436.0,niger,1,Africa (excl MENA),,,,,,,,,,Niger,Sub-Saharan Africa,Africa,9.401673,17.42088,NER,Niger,https://pax.peaceagreements.org/agreements/search/results?region=&countries=101&name=&match_any_issues=True&text=&search_type=simple,NE,NER,562.0,NIR
102,Nigeria,False,NGA,475.0,nigeria,1,Africa (excl MENA),,,,,,,,,,Nigeria,Sub-Saharan Africa,Africa,8.106778,9.593697,NGA,Nigeria,https://pax.peaceagreements.org/agreements/search/results?region=&countries=102&name=&match_any_issues=True&text=&search_type=simple,NG,NGA,566.0,NIG
103,North Korea,False,PRK,731.0,north-korea,3,Asia and Pacific,,,,,,,,,,North Korea,Eastern Asia,Asia,127.1697,40.14183,PRK,Dem People's Republic of Korea,https://pax.peaceagreements.org/agreements/search/results?region=&countries=103&name=&match_any_issues=True&text=&search_type=simple,KP,PRK,408.0,PRK
109,Pakistan,False,PAK,770.0,pakistan,3,Asia and Pacific,,,,,,,,,,Pakistan,Southern Asia,Asia,70.2101,30.31428,PAK,Pakistan,https://pax.peaceagreements.org/agreements/search/results?region=&countries=109&name=&match_any_issues=True&text=&search_type=simple,PK,PAK,586.0,PAK
186,Panama,False,PAN,95.0,panama,2,Americas,,,,,,,,,,Panama,Latin America and the Caribbean,Americas,-79.9729,8.939604,PAN,Panama,https://pax.peaceagreements.org/agreements/search/results?region=&countries=186&name=&match_any_issues=True&text=&search_type=simple,PA,PAN,591.0,PAN
111,Papua New Guinea,False,PNG,910.0,papua-new-guinea,3,Asia and Pacific,,,,,,,,,,Papua New Guinea,Melanesia,Oceania,145.2538,-6.47559,PNG,Papua New Guinea,https://pax.peaceagreements.org/agreements/search/results?region=&countries=111&name=&match_any_issues=True&text=&search_type=simple,PG,PNG,598.0,PNG
112,Peru,False,PER,135.0,peru,2,Americas,,,,,,,,,,Peru,Latin America and the Caribbean,Americas,-76.0,-10.0,PER,Peru,https://pax.peaceagreements.org/agreements/search/results?region=&countries=112&name=&match_any_issues=True&text=&search_type=simple,PE,PER,604.0,PER
113,Philippines,False,PHL,840.0,philippines,3,Asia and Pacific,1.0,Philippines,philippines,https://pax.peaceagreements.org/tracker/,https://pax.peaceagreements.org/tracker/philippines,https://pax.peaceagreements.org/tracker/timeline/philippines,https://pax.peaceagreements.org/tracker/process/philippines,https://pax.peaceagreements.org/tracker/actors/philippines,https://pax.peaceagreements.org/tracker/impacts/philippines,Philippines,South-eastern Asia,Asia,120.8616,14.16486,PHL,Philippines,https://pax.peaceagreements.org/agreements/search/results?region=&countries=113&name=&match_any_issues=True&text=&search_type=simple,PH,PHL,608.0,PHI
154,Portugal,False,PRT,235.0,portugal,4,Europe and Eurasia,,,,,,,,,,Portugal,Southern Europe,Europe,-8.51981,39.59314,PRT,Portugal,https://pax.peaceagreements.org/agreements/search/results?region=&countries=154&name=&match_any_issues=True&text=&search_type=simple,PT,PRT,620.0,POR
35,Republic of Congo,False,COG,484.0,republic-of-congo,1,Africa (excl MENA),,,,,,,,,,Republic of Congo,Sub-Saharan Africa,Africa,15.23529,-0.82177,COG,"Congo, Republic of the",https://pax.peaceagreements.org/agreements/search/results?region=&countries=35&name=&match_any_issues=True&text=&search_type=simple,CG,COG,178.0,CON
115,Russia,False,RUS,365.0,russia,4,Europe and Eurasia,,,,,,,,,,Russia,Eastern Europe,Europe,96.80537,61.98953,RUS,Russia,https://pax.peaceagreements.org/agreements/search/results?region=&countries=115&name=&match_any_issues=True&text=&search_type=simple,RU,RUS,643.0,RUS
116,Rwanda,False,RWA,517.0,rwanda,1,Africa (excl MENA),,,,,,,,,,Rwanda,Sub-Saharan Africa,Africa,29.95631,-1.99839,RWA,Rwanda,https://pax.peaceagreements.org/agreements/search/results?region=&countries=116&name=&match_any_issues=True&text=&search_type=simple,RW,RWA,646.0,RWA
117,Saudi Arabia,False,SAU,670.0,saudi-arabia,5,Middle East and North Africa,,,,,,,,,,Saudi Arabia,Western Asia,Asia,44.54883,24.12137,SAU,Kingdom of Saudi Arabia,https://pax.peaceagreements.org/agreements/search/results?region=&countries=117&name=&match_any_issues=True&text=&search_type=simple,SA,SAU,682.0,SAU
118,Senegal,False,SEN,433.0,senegal,1,Africa (excl MENA),,,,,,,,,,Senegal,Sub-Saharan Africa,Africa,-14.4593,14.36303,SEN,Republic of Senegal,https://pax.peaceagreements.org/agreements/search/results?region=&countries=118&name=&match_any_issues=True&text=&search_type=simple,SN,SEN,686.0,SEN
50,Serbia,False,SRB,345.0,serbia,4,Europe and Eurasia,,,,,,,,,,Serbia,Southern Europe,Europe,20.80455,44.02936,SRB,Serbia,https://pax.peaceagreements.org/agreements/search/results?region=&countries=50&name=&match_any_issues=True&text=&search_type=simple,RS,SRB,688.0,SER
121,Sierra Leone,False,SLE,451.0,sierra-leone,1,Africa (excl MENA),,,,,,,,,,Sierra Leone,Sub-Saharan Africa,Africa,-11.792,8.558038,SLE,Sierra Leone,https://pax.peaceagreements.org/agreements/search/results?region=&countries=121&name=&match_any_issues=True&text=&search_type=simple,SL,SLE,694.0,SIE
122,Slovenia,False,SVN,349.0,slovenia,4,Europe and Eurasia,,,,,,,,,,Slovenia,Southern Europe,Europe,14.82176,46.11955,SVN,Republic of Slovenia,https://pax.peaceagreements.org/agreements/search/results?region=&countries=122&name=&match_any_issues=True&text=&search_type=simple,SI,SVN,705.0,SLV
123,Solomon Islands,False,SLB,940.0,solomon-islands,3,Asia and Pacific,,,,,,,,,,Solomon Islands,Melanesia,Oceania,160.1603,-9.6228,SLB,Solomon Islands,https://pax.peaceagreements.org/agreements/search/results?region=&countries=123&name=&match_any_issues=True&text=&search_type=simple,SB,SLB,90.0,SOL
124,Somalia,False,SOM,520.0,somalia,1,Africa (excl MENA),1.0,Somalia,somalia,https://pax.peaceagreements.org/tracker/,https://pax.peaceagreements.org/tracker/somalia,https://pax.peaceagreements.org/tracker/timeline/somalia,https://pax.peaceagreements.org/tracker/process/somalia,https://pax.peaceagreements.org/tracker/actors/somalia,https://pax.peaceagreements.org/tracker/impacts/somalia,Somalia,Sub-Saharan Africa,Africa,46.20311,4.404616,SOM,Somalia,https://pax.peaceagreements.org/agreements/search/results?region=&countries=124&name=&match_any_issues=True&text=&search_type=simple,SO,SOM,706.0,SOM
125,South Africa,False,ZAF,560.0,south-africa,1,Africa (excl MENA),,,,,,,,,,South Africa,Sub-Saharan Africa,Africa,25.08505,-28.9972,ZAF,South Africa,https://pax.peaceagreements.org/agreements/search/results?region=&countries=125&name=&match_any_issues=True&text=&search_type=simple,ZA,ZAF,710.0,SAF
126,South Korea,False,KOR,732.0,south-korea,3,Asia and Pacific,,,,,,,,,,South Korea,Eastern Asia,Asia,127.8064,36.35627,KOR,Republic of Korea,https://pax.peaceagreements.org/agreements/search/results?region=&countries=126&name=&match_any_issues=True&text=&search_type=simple,KR,KOR,410.0,ROK
127,South Sudan,False,SSD,626.0,south-sudan,1,Africa (excl MENA),1.0,South Sudan,south-sudan,https://pax.peaceagreements.org/tracker/,https://pax.peaceagreements.org/tracker/south-sudan,https://pax.peaceagreements.org/tracker/timeline/south-sudan,https://pax.peaceagreements.org/tracker/process/south-sudan,https://pax.peaceagreements.org/tracker/actors/south-sudan,https://pax.peaceagreements.org/tracker/impacts/south-sudan,South Sudan,Sub-Saharan Africa,Africa,30.34377,7.263461,SSD,South Sudan,https://pax.peaceagreements.org/agreements/search/results?region=&countries=127&name=&match_any_issues=True&text=&search_type=simple,SS,SSD,728.0,SSD
128,Spain,False,ESP,230.0,spain,4,Europe and Eurasia,,,,,,,,,,Spain,Southern Europe,Europe,-3.64606,40.22795,ESP,Kingdom of Spain,https://pax.peaceagreements.org/agreements/search/results?region=&countries=128&name=&match_any_issues=True&text=&search_type=simple,ES,ESP,724.0,SPN
129,Sri Lanka,False,LKA,780.0,sri-lanka,3,Asia and Pacific,,,,,,,,,,Sri Lanka,Southern Asia,Asia,80.69863,7.617678,LKA,Sri Lanka,https://pax.peaceagreements.org/agreements/search/results?region=&countries=129&name=&match_any_issues=True&text=&search_type=simple,LK,LKA,144.0,SRI
130,Sudan,False,SDN,625.0,sudan,1,Africa (excl MENA),1.0,Sudan,sudan,https://pax.peaceagreements.org/tracker/,https://pax.peaceagreements.org/tracker/sudan,https://pax.peaceagreements.org/tracker/timeline/sudan,https://pax.peaceagreements.org/tracker/process/sudan,https://pax.peaceagreements.org/tracker/actors/sudan,https://pax.peaceagreements.org/tracker/impacts/sudan,Sudan,Northern Africa,Africa,30.00919,16.05325,SDN,Sudan,https://pax.peaceagreements.org/agreements/search/results?region=&countries=130&name=&match_any_issues=True&text=&search_type=simple,SD,SDN,729.0,SUD
131,Syria,False,SYR,652.0,syria,5,Middle East and North Africa,1.0,Syria,syria,https://pax.peaceagreements.org/tracker/,https://pax.peaceagreements.org/tracker/syria,https://pax.peaceagreements.org/tracker/timeline/syria,https://pax.peaceagreements.org/tracker/process/syria,https://pax.peaceagreements.org/tracker/actors/syria,https://pax.peaceagreements.org/tracker/impacts/syria,Syria,Western Asia,Asia,38.50527,35.01281,SYR,Syria,https://pax.peaceagreements.org/agreements/search/results?region=&countries=131&name=&match_any_issues=True&text=&search_type=simple,SY,SYR,760.0,SYR
132,Tajikistan,False,TJK,702.0,tajikistan,4,Europe and Eurasia,,,,,,,,,,Tajikistan,Central Asia,Asia,71.0,39.0,TJK,Republic of Tajikistan,https://pax.peaceagreements.org/agreements/search/results?region=&countries=132&name=&match_any_issues=True&text=&search_type=simple,TJ,TJK,762.0,TAJ
133,Tanzania,False,TZA,510.0,tanzania,1,Africa (excl MENA),,,,,,,,,,Tanzania,Sub-Saharan Africa,Africa,34.99532,-6.4384,TZA,Tanzania,https://pax.peaceagreements.org/agreements/search/results?region=&countries=133&name=&match_any_issues=True&text=&search_type=simple,TZ,TZA,834.0,TAZ
134,Thailand,False,THA,800.0,thailand,3,Asia and Pacific,,,,,,,,,,Thailand,South-eastern Asia,Asia,101.0122,15.1168,THA,Kingdom of Thailand,https://pax.peaceagreements.org/agreements/search/results?region=&countries=134&name=&match_any_issues=True&text=&search_type=simple,TH,THA,764.0,THI
135,Togo,False,TGO,461.0,togo,1,Africa (excl MENA),,,,,,,,,,Togo,Sub-Saharan Africa,Africa,0.974444,8.53905,TGO,Togo,https://pax.peaceagreements.org/agreements/search/results?region=&countries=135&name=&match_any_issues=True&text=&search_type=simple,TG,TGO,768.0,TOG
136,Tonga,False,TON,972.0,tonga,1,Africa (excl MENA),,,,,,,,,,Tonga,Polynesia,Oceania,-175.276,-21.1587,TON,Tonga,https://pax.peaceagreements.org/agreements/search/results?region=&countries=136&name=&match_any_issues=True&text=&search_type=simple,TO,TON,776.0,
164,Tunisia,False,TUN,616.0,tunisia,5,Middle East and North Africa,,,,,,,,,,Tunisia,Northern Africa,Africa,9.608516,34.11632,TUN,Republic of Tunisia,https://pax.peaceagreements.org/agreements/search/results?region=&countries=164&name=&match_any_issues=True&text=&search_type=simple,TN,TUN,788.0,TUN
139,Turkey,False,TUR,640.0,turkey,4,Europe and Eurasia,,,,,,,,,,Turkey,Western Asia,Asia,35.14229,39.06625,TUR,Republic of Turkiye,https://pax.peaceagreements.org/agreements/search/results?region=&countries=139&name=&match_any_issues=True&text=&search_type=simple,TR,TUR,792.0,TUR
140,Turkmenistan,False,TKM,701.0,turkmenistan,4,Europe and Eurasia,,,,,,,,,,Turkmenistan,Central Asia,Asia,59.17525,39.19336,TKM,Turkmenistan,https://pax.peaceagreements.org/agreements/search/results?region=&countries=140&name=&match_any_issues=True&text=&search_type=simple,TM,TKM,795.0,TKM
141,Uganda,False,UGA,500.0,uganda,1,Africa (excl MENA),,,,,,,,,,Uganda,Sub-Saharan Africa,Africa,32.33571,1.513806,UGA,Uganda,https://pax.peaceagreements.org/agreements/search/results?region=&countries=141&name=&match_any_issues=True&text=&search_type=simple,UG,UGA,800.0,UGA
142,Ukraine,False,UKR,369.0,ukraine,4,Europe and Eurasia,1.0,Ukraine,ukraine,https://pax.peaceagreements.org/tracker/,https://pax.peaceagreements.org/tracker/ukraine,https://pax.peaceagreements.org/tracker/timeline/ukraine,https://pax.peaceagreements.org/tracker/process/ukraine,https://pax.peaceagreements.org/tracker/actors/ukraine,https://pax.peaceagreements.org/tracker/impacts/ukraine,Ukraine,Eastern Europe,Europe,31.37493,49.0269,UKR,Ukraine,https://pax.peaceagreements.org/agreements/search/results?region=&countries=142&name=&match_any_issues=True&text=&search_type=simple,UA,UKR,804.0,UKR
143,United Kingdom,False,GBR,200.0,united-kingdom,4,Europe and Eurasia,,,,,,,,,,United Kingdom,Northern Europe,Europe,-1.96956,53.40839,GBR,United Kingdom,https://pax.peaceagreements.org/agreements/search/results?region=&countries=143&name=&match_any_issues=True&text=&search_type=simple,GB,GBR,826.0,UKG
145,United States of America,False,USA,2.0,united-states-of-america,2,Americas,,,,,,,,,,United States of America,Northern America,Americas,-99.4146,39.3987,USA,United States,https://pax.peaceagreements.org/agreements/search/results?region=&countries=145&name=&match_any_issues=True&text=&search_type=simple,US,USA,840.0,USA
146,Uzbekistan,False,UZB,704.0,uzbekistan,4,Europe and Eurasia,,,,,,,,,,Uzbekistan,Central Asia,Asia,63.42188,41.58135,UZB,Republic of Uzbekistan,https://pax.peaceagreements.org/agreements/search/results?region=&countries=146&name=&match_any_issues=True&text=&search_type=simple,UZ,UZB,860.0,UZB
149,Vanuatu,False,VUT,935.0,vanuatu,3,Asia and Pacific,,,,,,,,,,Vanuatu,Melanesia,Oceania,166.8728,-15.2414,VUT,Vanuatu,https://pax.peaceagreements.org/agreements/search/results?region=&countries=149&name=&match_any_issues=True&text=&search_type=simple,VU,VUT,548.0,
150,Venezuela,False,VEN,101.0,venezuela,2,Americas,,,,,,,,,,Venezuela,Latin America and the Caribbean,Americas,-66.1628,7.120734,VEN,Bolivarian Republic of Venezuela,https://pax.peaceagreements.org/agreements/search/results?region=&countries=150&name=&match_any_issues=True&text=&search_type=simple,VE,VEN,862.0,VEN
148,Yemen,False,YEM,678.0,yemen,5,Middle East and North Africa,1.0,Yemen,yemen,https://pax.peaceagreements.org/tracker/,https://pax.peaceagreements.org/tracker/yemen,https://pax.peaceagreements.org/tracker/timeline/yemen,https://pax.peaceagreements.org/tracker/process/yemen,https://pax.peaceagreements.org/tracker/actors/yemen,https://pax.peaceagreements.org/tracker/impacts/yemen,Yemen,Western Asia,Asia,47.59395,15.90521,YEM,Yemen,https://pax.peaceagreements.org/agreements/search/results?region=&countries=148&name=&match_any_issues=True&text=&search_type=simple,YE,YEM,887.0,YEM
157,Yugoslavia (former),False,,345.0,yugoslavia-former,4,Europe and Eurasia,,,,,,,,,,Yugoslavia (former),Southern Europe,Europe,-66.1587,-17.4164,BOL,Bolivia,https://pax.peaceagreements.org/agreements/search/results?region=&countries=157&name=&match_any_issues=True&text=&search_type=simple,,,,
151,Zambia,False,ZMB,551.0,zambia,1,Africa (excl MENA),,,,,,,,,,Zambia,Sub-Saharan Africa,Africa,28.76797,-14.4688,ZMB,Zambia,https://pax.peaceagreements.org/agreements/search/results?region=&countries=151&name=&match_any_issues=True&text=&search_type=simple,ZM,ZMB,894.0,ZAM
152,Zimbabwe,False,ZWE,552.0,zimbabwe,1,Africa (excl MENA),,,,,,,,,,Zimbabwe,Sub-Saharan Africa,Africa,29.88428,-19.0162,ZWE,Zimbabwe,https://pax.peaceagreements.org/agreements/search/results?region=&countries=152&name=&match_any_issues=True&text=&search_type=simple,ZW,ZWE,716.0,ZIM
2,Abkhazia,True,,,abkhazia,4,Europe and Eurasia,,,,,,,,,,Abkhazia,Western Asia,Asia,41.16521,43.11038,,,https://pax.peaceagreements.org/agreements/search/results?region=&countries=2&name=&match_any_issues=True&text=&search_type=simple,,,,
3,Aceh,True,,,aceh,3,Asia and Pacific,,,,,,,,,,Aceh,South-eastern Asia,Asia,96.90952,4.225082,IDN,Indonesia,https://pax.peaceagreements.org/agreements/search/results?region=&countries=3&name=&match_any_issues=True&text=&search_type=simple,,,,
6,African Great Lakes,True,,,african-great-lakes,1,Africa (excl MENA),,,,,,,,,,African Great Lakes,,Africa,33.72941,0.66434,,,https://pax.peaceagreements.org/agreements/search/results?region=&countries=6&name=&match_any_issues=True&text=&search_type=simple,,,,
7,Air and Azawad,True,,,air-and-azawad,1,Africa (excl MENA),,,,,,,,,,Air and Azawad,Sub-Saharan Africa,Africa,-2.33417,18.54778,MLI,Mali,https://pax.peaceagreements.org/agreements/search/results?region=&countries=7&name=&match_any_issues=True&text=&search_type=simple,,,,
10,Anjouan,True,,,anjouan,1,Africa (excl MENA),,,,,,,,,,Anjouan,Sub-Saharan Africa,Africa,44.43654,-12.2224,COM,Comoros,https://pax.peaceagreements.org/agreements/search/results?region=&countries=10&name=&match_any_issues=True&text=&search_type=simple,,,,
189,Assam,True,,,assam,3,Asia and Pacific,,,,,,,,,,Assam,Southern Asia,Asia,92.83008,26.32614,IND,India,https://pax.peaceagreements.org/agreements/search/results?region=&countries=189&name=&match_any_issues=True&text=&search_type=simple,,,,
190,Aweil Counties,True,,,aweil-counties,1,Africa (excl MENA),,,,,,,,,,,,,27.4028,8.7737,SSD,South Sudan,https://pax.peaceagreements.org/agreements/search/results?region=&countries=190&name=&match_any_issues=True&text=&search_type=simple,,,,
15,Azawad,True,,,azawad,1,Africa (excl MENA),,,,,,,,,,Azawad,Sub-Saharan Africa,Africa,-2.33417,18.54778,MLI,Mali,https://pax.peaceagreements.org/agreements/search/results?region=&countries=15&name=&match_any_issues=True&text=&search_type=simple,,,,
18,Basque Country,True,,,basque-country,4,Europe and Eurasia,,,,,,,,,,Basque Country,Southern Europe,Europe,-2.617,43.04318,ESP,Kingdom of Spain,https://pax.peaceagreements.org/agreements/search/results?region=&countries=18&name=&match_any_issues=True&text=&search_type=simple,,,,
19,Bodoland,True,,,bodoland,3,Asia and Pacific,,,,,,,,,,Bodoland,Southern Asia,Asia,90.27407,26.40735,IND,India,https://pax.peaceagreements.org/agreements/search/results?region=&countries=19&name=&match_any_issues=True&text=&search_type=simple,,,,
21,Bougainville,True,,,bougainville,3,Asia and Pacific,,,,,,,,,,Bougainville,Melanesia,Oceania,155.0,-6.0,PNG,Papua New Guinea,https://pax.peaceagreements.org/agreements/search/results?region=&countries=21&name=&match_any_issues=True&text=&search_type=simple,,,,
196,Cabinda,True,,,cabinda,1,Africa (excl MENA),,,,,,,,,,Cabinda,Sub-Saharan Africa,Africa,12.19448,-5.56084,AGO,Angola,https://pax.peaceagreements.org/agreements/search/results?region=&countries=196&name=&match_any_issues=True&text=&search_type=simple,,,,
25,Casamance,True,,,casamance,1,Africa (excl MENA),,,,,,,,,,Casamance,Sub-Saharan Africa,Africa,-15.5,12.75,SEN,Senegal,https://pax.peaceagreements.org/agreements/search/results?region=&countries=25&name=&match_any_issues=True&text=&search_type=simple,,,,
28,Chechnya,True,,,chechnya,4,Europe and Eurasia,,,,,,,,,,Chechnya,Eastern Europe,Europe,45.74235,43.3037,RUS,Russia,https://pax.peaceagreements.org/agreements/search/results?region=&countries=28&name=&match_any_issues=True&text=&search_type=simple,,,,
31,Chittagong Hill Tracts,True,,,chittagong-hill-tracts,3,Asia and Pacific,,,,,,,,,,Chittagong Hill Tracts,Southern Asia,Asia,92.24725,23.0059,BGD,Bangladesh,https://pax.peaceagreements.org/agreements/search/results?region=&countries=31&name=&match_any_issues=True&text=&search_type=simple,,,,
153,Cordillera,True,,,cordillera,3,Asia and Pacific,,,,,,,,,,Cordillera,South-eastern Asia,Asia,-56.9547,-25.2032,PRY,Paraguay,https://pax.peaceagreements.org/agreements/search/results?region=&countries=153&name=&match_any_issues=True&text=&search_type=simple,,,,
40,Darfur,True,,,darfur,1,Africa (excl MENA),,,,,,,,,,Darfur,Northern Africa,Africa,25.0,13.0,SDN,Sudan,https://pax.peaceagreements.org/agreements/search/results?region=&countries=40&name=&match_any_issues=True&text=&search_type=simple,,,,
41,Darjeeling,True,,,darjeeling,3,Asia and Pacific,,,,,,,,,,Darjeeling,Southern Asia,Asia,88.26382,27.03937,IND,India,https://pax.peaceagreements.org/agreements/search/results?region=&countries=41&name=&match_any_issues=True&text=&search_type=simple,,,,
44,East Timor,True,,860.0,east-timor,3,Asia and Pacific,,,,,,,,,,East Timor,South-eastern Asia,Asia,125.8524,-8.82032,TLS,Democratic Republic of Timor-Leste,https://pax.peaceagreements.org/agreements/search/results?region=&countries=44&name=&match_any_issues=True&text=&search_type=simple,,,,
45,Eastern Sudan,True,,,eastern-sudan,1,Africa (excl MENA),,,,,,,,,,,,,33.7342,13.7942,,,https://pax.peaceagreements.org/agreements/search/results?region=&countries=45&name=&match_any_issues=True&text=&search_type=simple,,,,
192,Gogrial West County,True,,,gogrial-west-county,1,Africa (excl MENA),,,,,,,,,,Gogrial West County,Sub-Saharan Africa,Africa,28.101,8.5316,SSD,South Sudan,https://pax.peaceagreements.org/agreements/search/results?region=&countries=192&name=&match_any_issues=True&text=&search_type=simple,,,,
176,International Monetary Fund,True,,,international-monetary-fund,6,Cross-regional,,,,,,,,,,,,,,,,,https://pax.peaceagreements.org/agreements/search/results?region=&countries=176&name=&match_any_issues=True&text=&search_type=simple,,,,
187,Kurds-Kurdistan,True,,,kurds-kurdistan,6,Cross-regional,,,,,,,,,,Kurds-Kurdistan,Western Asia,Asia,44.0,37.0,IRQ,Iraq,https://pax.peaceagreements.org/agreements/search/results?region=&countries=187&name=&match_any_issues=True&text=&search_type=simple,,,,
188,Manipur,True,,,manipur,3,Asia and Pacific,,,,,,,,,,Manipur,Southern Asia,Asia,93.88333,24.73253,IND,India,https://pax.peaceagreements.org/agreements/search/results?region=&countries=188&name=&match_any_issues=True&text=&search_type=simple,,,,
85,Mindanao,True,,,mindanao,3,Asia and Pacific,,,,,,,,,,Mindanao,South-eastern Asia,Asia,123.3444,9.64372,PHL,Philippines,https://pax.peaceagreements.org/agreements/search/results?region=&countries=85&name=&match_any_issues=True&text=&search_type=simple,,,,
86,Mizoram,True,,,mizoram,3,Asia and Pacific,,,,,,,,,,Mizoram,Southern Asia,Asia,92.82892,23.3078,IND,India,https://pax.peaceagreements.org/agreements/search/results?region=&countries=86&name=&match_any_issues=True&text=&search_type=simple,,,,
88,Moluccas,True,,,moluccas,3,Asia and Pacific,,,,,,,,,,Moluccas,South-eastern Asia,Asia,127.7174,-1.57634,IDN,Indonesia,https://pax.peaceagreements.org/agreements/search/results?region=&countries=88&name=&match_any_issues=True&text=&search_type=simple,,,,
201,Mopti,True,ML-5,,mopti,1,Africa (excl MENA),,,,,,,,,,Mopti,Sub-Saharan Africa,Africa,-4.1933,14.4893,MLI,Mali,https://pax.peaceagreements.org/agreements/search/results?region=&countries=201&name=&match_any_issues=True&text=&search_type=simple,,,,
93,Nagaland,True,,,nagaland,3,Asia and Pacific,,,,,,,,,,Nagaland,Southern Asia,Asia,94.47205,26.05934,IND,India,https://pax.peaceagreements.org/agreements/search/results?region=&countries=93&name=&match_any_issues=True&text=&search_type=simple,,,,
95,Nagorno-Karabakh,True,,,nagorno-karabakh,4,Europe and Eurasia,,,,,,,,,,Nagorno-Karabakh,Western Asia,Asia,46.58333,40.0,,,https://pax.peaceagreements.org/agreements/search/results?region=&countries=95&name=&match_any_issues=True&text=&search_type=simple,,,,
98,New Caledonia,True,,,new-caledonia,3,Asia and Pacific,,,,,,,,,,New Caledonia,Western Europe,Europe,165.7018,-21.3078,NCL,New Caledonia,https://pax.peaceagreements.org/agreements/search/results?region=&countries=98&name=&match_any_issues=True&text=&search_type=simple,,,,
104,Northern Ireland,True,,,northern-ireland,4,Europe and Eurasia,1.0,Northern Ireland,northern-ireland,https://pax.peaceagreements.org/tracker/,https://pax.peaceagreements.org/tracker/northern-ireland,https://pax.peaceagreements.org/tracker/timeline/northern-ireland,https://pax.peaceagreements.org/tracker/process/northern-ireland,https://pax.peaceagreements.org/tracker/actors/northern-ireland,https://pax.peaceagreements.org/tracker/impacts/northern-ireland,Northern Ireland,Northern Europe,Europe,-6.69275,54.61039,GBR,United Kingdom,https://pax.peaceagreements.org/agreements/search/results?region=&countries=104&name=&match_any_issues=True&text=&search_type=simple,,,,
106,Ogaden,True,,,ogaden,1,Africa (excl MENA),,,,,,,,,,Ogaden,Sub-Saharan Africa,Africa,44.0,8.0,ETH,Ethiopia,https://pax.peaceagreements.org/agreements/search/results?region=&countries=106&name=&match_any_issues=True&text=&search_type=simple,,,,
107,Ossetia,True,,,ossetia,4,Europe and Eurasia,,,,,,,,,,Ossetia,Western Asia,Asia,44.63758,43.03491,RUS,Russia,https://pax.peaceagreements.org/agreements/search/results?region=&countries=107&name=&match_any_issues=True&text=&search_type=simple,,,,
108,Palestine,True,PSE,,palestine,5,Middle East and North Africa,,,,,,,,,,Palestine,Western Asia,Asia,35.20468,31.91272,,,https://pax.peaceagreements.org/agreements/search/results?region=&countries=108&name=&match_any_issues=True&text=&search_type=simple,PS,PSE,275.0,
197,Plateau State,True,,,plateau-state,1,Africa (excl MENA),,,,,,,,,,Plateau State,Sub-Saharan Africa,Africa,9.75,9.16667,NGA,Nigeria,https://pax.peaceagreements.org/agreements/search/results?region=&countries=197&name=&match_any_issues=True&text=&search_type=simple,,,,
162,Presevo Valley,True,,,presevo-valley,4,Europe and Eurasia,,,,,,,,,,Presevo Valley,Southern Europe,Europe,21.64978,42.30662,,,https://pax.peaceagreements.org/agreements/search/results?region=&countries=162&name=&match_any_issues=True&text=&search_type=simple,,,,
169,Puntland,True,,,puntland,1,Africa (excl MENA),,,,,,,,,,Puntland,Sub-Saharan Africa,Africa,49.0,9.0,SOM,Somalia,https://pax.peaceagreements.org/agreements/search/results?region=&countries=169&name=&match_any_issues=True&text=&search_type=simple,,,,
156,Rebolusyonaryong Alyansang Makabansa (SFP-YOU),True,,,rebolusyonaryong-alyansang-makabansa-sfp-you,3,Asia and Pacific,,,,,,,,,,Rebolusyonaryong Alyansang Makabansa (SFP-YOU),South-eastern Asia,Asia,,,,,https://pax.peaceagreements.org/agreements/search/results?region=&countries=156&name=&match_any_issues=True&text=&search_type=simple,,,,
155,Rebolusyonaryong Partido ng Manggagawa-Pilipineas (RPMP/RPA/ABB),True,,,rebolusyonaryong-partido-ng-manggagawa-pilipineas,3,Asia and Pacific,,,,,,,,,,Rebolusyonaryong Partido ng Manggagawa-Pilipineas (RPMP/RPA/ABB),South-eastern Asia,Asia,,,,,https://pax.peaceagreements.org/agreements/search/results?region=&countries=155&name=&match_any_issues=True&text=&search_type=simple,,,,
168,Somaliland,True,,,somaliland,1,Africa (excl MENA),,,,,,,,,,Somaliland,Sub-Saharan Africa,Africa,45.0,8.0,ETH,Ethiopia,https://pax.peaceagreements.org/agreements/search/results?region=&countries=168&name=&match_any_issues=True&text=&search_type=simple,,,,
198,Southern Kaduna,True,,,southern-kaduna,1,Africa (excl MENA),,,,,,,,,,Southern Kaduna,Sub-Saharan Africa,Africa,8.4347,10.5971,NGA,Nigeria,https://pax.peaceagreements.org/agreements/search/results?region=&countries=198&name=&match_any_issues=True&text=&search_type=simple,,,,
1,Southern Kordofan - Blue Nile - Abyei,True,,,southern-kordofan-blue-nile-abyei,1,Africa (excl MENA),,,,,,,,,,Southern Kordofan - Blue Nile - Abyei,Northern Africa,Africa,29.889,12.8628,SDN,Sudan,https://pax.peaceagreements.org/agreements/search/results?region=&countries=1&name=&match_any_issues=True&text=&search_type=simple,,,,
167,Taliban,True,,,taliban,6,Cross-regional,,,,,,,,,,,,,,,,,https://pax.peaceagreements.org/agreements/search/results?region=&countries=167&name=&match_any_issues=True&text=&search_type=simple,,,,
193,Terekeka,True,,,terekeka,1,Africa (excl MENA),,,,,,,,,,Terekeka,Sub-Saharan Africa,Africa,36.88562,-1.32987,KEN,Kenya,https://pax.peaceagreements.org/agreements/search/results?region=&countries=193&name=&match_any_issues=True&text=&search_type=simple,,,,
202,Tigray,True,,,tigray,1,Africa (excl MENA),,,,,,,,,,,,,38.7759,14.15,ETH,Ethiopia,https://pax.peaceagreements.org/agreements/search/results?region=&countries=202&name=&match_any_issues=True&text=&search_type=simple,,,,
137,Transdniestria,True,,,transdniestria,4,Europe and Eurasia,,,,,,,,,,Transdniestria,Eastern Europe,Europe,29.25,47.33333,,,https://pax.peaceagreements.org/agreements/search/results?region=&countries=137&name=&match_any_issues=True&text=&search_type=simple,,,,
138,Tripura,True,,,tripura,3,Asia and Pacific,,,,,,,,,,Tripura,Southern Asia,Asia,91.74011,23.74652,IND,India,https://pax.peaceagreements.org/agreements/search/results?region=&countries=138&name=&match_any_issues=True&text=&search_type=simple,,,,
191,Twic County,True,,,twic-county,1,Africa (excl MENA),,,,,,,,,,Twic County,Sub-Saharan Africa,Africa,28.28613,9.11055,SSD,South Sudan,https://pax.peaceagreements.org/agreements/search/results?region=&countries=191&name=&match_any_issues=True&text=&search_type=simple,,,,
144,United Nations,True,,,united-nations,6,Cross-regional,,,,,,,,,,,,,,,,,https://pax.peaceagreements.org/agreements/search/results?region=&countries=144&name=&match_any_issues=True&text=&search_type=simple,,,,
147,Western Sahara,True,,,western-sahara,5,Middle East and North Africa,,,,,,,,,,Western Sahara,Northern Africa,Africa,-13.1395,24.6585,,,https://pax.peaceagreements.org/agreements/search/results?region=&countries=147&name=&match_any_issues=True&text=&search_type=simple,,,,
179,World Bank,True,,,world-bank,6,Cross-regional,,,,,,,,,,,,,,,,,https://pax.peaceagreements.org/agreements/search/results?region=&countries=179&name=&match_any_issues=True&text=&search_type=simple,,,,
